{
  "type": "FeatureCollection",
  "features": [
    {
      "type": "Feature",
      "properties": {
        "name": "Delhi",
        "state": "Delhi",
        "country": "India"
      },
      "geometry": {
        "type": "Polygon",
        "coordinates": [
          [
            [77.3465, 28.8833],
            [77.3200, 28.8500],
            [77.2900, 28.8200],
            [77.2500, 28.7900],
            [77.2200, 28.7600],
            [77.1900, 28.7300],
            [77.1600, 28.7000],
            [77.1300, 28.6700],
            [77.1000, 28.6400],
            [77.0700, 28.6100],
            [77.0400, 28.5800],
            [77.0100, 28.5500],
            [76.9800, 28.5200],
            [76.9500, 28.4900],
            [76.9200, 28.4600],
            [76.8900, 28.4300],
            [76.8388, 28.4042],
            [76.8500, 28.4200],
            [76.8700, 28.4500],
            [76.8900, 28.4800],
            [76.9100, 28.5100],
            [76.9300, 28.5400],
            [76.9500, 28.5700],
            [76.9700, 28.6000],
            [76.9900, 28.6300],
            [77.0100, 28.6600],
            [77.0300, 28.6900],
            [77.0500, 28.7200],
            [77.0700, 28.7500],
            [77.0900, 28.7800],
            [77.1100, 28.8100],
            [77.1300, 28.8400],
            [77.1500, 28.8600],
            [77.1800, 28.8700],
            [77.2100, 28.8750],
            [77.2400, 28.8800],
            [77.2700, 28.8820],
            [77.3000, 28.8830],
            [77.3465, 28.8833]
          ]
        ]
      }
    }
  ]
}
